{
  "norad_id": 44794,
  "name": "BEIDOU-3 M21",
  "history": [
    {
      "epoch": "2026-03-26T12:43:42.292704",
      "apogee_km": 21543.408691512388,
      "perigee_km": 21513.380147443768,
      "latitude_deg": 28.396945733501077,
      "longitude_deg": -41.68634144007228,
      "semi_major_axis_km": 27906.531419478077,
      "eccentricity": 0.00053802,
      "inclination_deg": 53.9841,
      "raan_deg": 302.6991,
      "arg_perigee_deg": 37.5776,
      "mean_anomaly_deg": 322.4952,
      "mean_motion_rev_day": 1.86227568
    }
  ]
}